0 FENGYUN 1C DEB
1 31482U 99025BVW 13281.33220144  .00000760  00000-0  32981-3 0  5633
2 31482 098.7879 311.8906 0104053 011.4757 045.2641 14.24248017337709
0 FENGYUN 1C DEB
1 31482U 99025BVW 13283.87401740  .00000983  00000-0  42124-3 0  5645
2 31482 098.7876 314.4330 0103921 004.0799 117.9622 14.24254524338069
0 FENGYUN 1C DEB
1 31482U 99025BVW 13286.03376112  .00000861  00000-0  37135-3 0  5652
2 31482 098.7870 316.5933 0103810 357.7849 031.7026 14.24258771338379
0 FENGYUN 1C DEB
1 31482U 99025BVW 13288.28793089  .00001309  00000-0  55514-3 0  5667
2 31482 098.7864 318.8478 0103716 351.2205 069.6286 14.24264018338695
0 FENGYUN 1C DEB
1 31482U 99025BVW 13290.32434293  .00001061  00000-0  45335-3 0  5670
2 31482 098.7861 320.8844 0103630 345.2663 071.0965 14.24269510338983
0 FENGYUN 1C DEB
1 31482U 99025BVW 13293.34501337  .00001162  00000-0  49501-3 0  5681
2 31482 098.7860 323.9049 0103522 336.4423 079.2993 14.24275764339417
